[{"OBJECT_NAME":"STARLINK-6366","OBJECT_ID":"2023-099BE","EPOCH":"2026-03-09T11:16:15.688128","MEAN_MOTION":15.02523908,"ECCENTRICITY":0.00012362,"INCLINATION":43.0024,"RA_OF_ASC_NODE":211.0968,"ARG_OF_PERICENTER":271.2637,"MEAN_ANOMALY":88.8064,"EPHEMERIS_TYPE":0,"CLASSIFICATION_TYPE":"U","NORAD_CAT_ID":57380,"ELEMENT_SET_NO":999,"REV_AT_EPOCH":14726,"BSTAR":-2.6420231e-5,"MEAN_MOTION_DOT":-5.6e-6,"MEAN_MOTION_DDOT":0},{"OBJECT_NAME":"CZ-6A DEB","OBJECT_ID":"2024-140FB","EPOCH":"2026-03-09T14:48:01.661760","MEAN_MOTION":15.0628726,"ECCENTRICITY":0.0079054,"INCLINATION":89.1878,"RA_OF_ASC_NODE":293.0208,"ARG_OF_PERICENTER":138.3366,"MEAN_ANOMALY":222.3932,"EPHEMERIS_TYPE":0,"CLASSIFICATION_TYPE":"U","NORAD_CAT_ID":60776,"ELEMENT_SET_NO":999,"REV_AT_EPOCH":8515,"BSTAR":0.002571,"MEAN_MOTION_DOT":0.00040709,"MEAN_MOTION_DDOT":0}]
